{
  "links" : {
    "next" : "https://api.nasa.gov/neo/rest/v1/feed?start_date=2000-06-23&end_date=2000-06-23&detailed=true&api_key=t0TVs3DtDT2H8Oy2Zy8m2eVrNsAVKAexjcZXUckd",
    "prev" : "https://api.nasa.gov/neo/rest/v1/feed?start_date=2000-06-21&end_date=2000-06-21&detailed=true&api_key=t0TVs3DtDT2H8Oy2Zy8m2eVrNsAVKAexjcZXUckd",
    "self" : "https://api.nasa.gov/neo/rest/v1/feed?start_date=2000-06-22&end_date=2000-06-22&detailed=true&api_key=t0TVs3DtDT2H8Oy2Zy8m2eVrNsAVKAexjcZXUckd"
  },
  "element_count" : 5,
  "near_earth_objects" : {
    "2000-06-22" : [ {
      "links" : {
        "self" : "https://api.nasa.gov/neo/rest/v1/neo/3653683?api_key=t0TVs3DtDT2H8Oy2Zy8m2eVrNsAVKAexjcZXUckd"
      },
      "neo_reference_id" : "3653683",
      "name" : "(2013 VC13)",
      "nasa_jpl_url" : "http://ssd.jpl.nasa.gov/sbdb.cgi?sstr=3653683",
      "absolute_magnitude_h" : 19.1,
      "estimated_diameter" : {
        "kilometers" : {
          "estimated_diameter_min" : 0.4023045798,
          "estimated_diameter_max" : 0.8995803882
        },
        "meters" : {
          "estimated_diameter_min" : 402.3045798343,
          "estimated_diameter_max" : 899.5803881691
        },
        "miles" : {
          "estimated_diameter_min" : 0.2499803991,
          "estimated_diameter_max" : 0.5589731654
        },
        "feet" : {
          "estimated_diameter_min" : 1319.8969577037,
          "estimated_diameter_max" : 2951.3793207207
        }
      },
      "is_potentially_hazardous_asteroid" : false,
      "close_approach_data" : [ {
        "close_approach_date" : "2000-06-22",
        "epoch_date_close_approach" : 961657200000,
        "relative_velocity" : {
          "kilometers_per_second" : "17.9536655584",
          "kilometers_per_hour" : "64633.1960102828",
          "miles_per_hour" : "40160.5544876116"
        },
        "miss_distance" : {
          "astronomical" : "0.3967085427",
          "lunar" : "154.3196258545",
          "kilometers" : "59346756",
          "miles" : "36876364"
        },
        "orbiting_body" : "Earth"
      } ],
      "orbital_data" : {
        "orbit_id" : "38",
        "orbit_determination_date" : "2017-03-04 06:17:16",
        "orbit_uncertainty" : "0",
        "minimum_orbit_intersection" : ".0579819",
        "jupiter_tisserand_invariant" : "4.284",
        "epoch_osculation" : "2457800.5",
        "eccentricity" : ".5879997755078575",
        "semi_major_axis" : "1.523442961193881",
        "inclination" : "7.195137502594071",
        "ascending_node_longitude" : "200.0600617244527",
        "orbital_period" : "686.811763026925",
        "perihelion_distance" : ".6276588420128532",
        "perihelion_argument" : "61.27672976034135",
        "aphelion_distance" : "2.419227080374908",
        "perihelion_time" : "2457891.708346953432",
        "mean_anomaly" : "312.1921337536145",
        "mean_motion" : ".5241610866031235",
        "equinox" : "J2000"
      }
    }, {
      "links" : {
        "self" : "https://api.nasa.gov/neo/rest/v1/neo/2486692?api_key=t0TVs3DtDT2H8Oy2Zy8m2eVrNsAVKAexjcZXUckd"
      },
      "neo_reference_id" : "2486692",
      "name" : "486692 (2013 VC13)",
      "nasa_jpl_url" : "http://ssd.jpl.nasa.gov/sbdb.cgi?sstr=2486692",
      "absolute_magnitude_h" : 19.3,
      "estimated_diameter" : {
        "kilometers" : {
          "estimated_diameter_min" : 0.3669061375,
          "estimated_diameter_max" : 0.8204270649
        },
        "meters" : {
          "estimated_diameter_min" : 366.9061375314,
          "estimated_diameter_max" : 820.4270648822
        },
        "miles" : {
          "estimated_diameter_min" : 0.2279848336,
          "estimated_diameter_max" : 0.5097895857
        },
        "feet" : {
          "estimated_diameter_min" : 1203.7603322587,
          "estimated_diameter_max" : 2691.6899315481
        }
      },
      "is_potentially_hazardous_asteroid" : false,
      "close_approach_data" : [ {
        "close_approach_date" : "2000-06-22",
        "epoch_date_close_approach" : 961657200000,
        "relative_velocity" : {
          "kilometers_per_second" : "17.9536642356",
          "kilometers_per_hour" : "64633.1912483256",
          "miles_per_hour" : "40160.5515287165"
        },
        "miss_distance" : {
          "astronomical" : "0.396708525",
          "lunar" : "154.3196105957",
          "kilometers" : "59346752",
          "miles" : "36876360"
        },
        "orbiting_body" : "Earth"
      } ],
      "orbital_data" : {
        "orbit_id" : "43",
        "orbit_determination_date" : "2017-09-21 06:22:01",
        "orbit_uncertainty" : "0",
        "minimum_orbit_intersection" : ".0575808",
        "jupiter_tisserand_invariant" : "4.284",
        "epoch_osculation" : "2458000.5",
        "eccentricity" : ".5880232086208848",
        "semi_major_axis" : "1.523663596619945",
        "inclination" : "7.195903256778172",
        "ascending_node_longitude" : "200.0377734130573",
        "orbital_period" : "686.9609715922667",
        "perihelion_distance" : ".6277140396766476",
        "perihelion_argument" : "61.28521722323475",
        "aphelion_distance" : "2.419613153563243",
        "perihelion_time" : "2457891.701435184303",
        "mean_anomaly" : "57.01558742539159",
        "mean_motion" : ".5240472383250202",
        "equinox" : "J2000"
      }
    } ]
  }
}